[
  {
    "AreaCode":"0113",
    "Town":"Leeds"
  },
  {
    "AreaCode":"0114",
    "Town":"Sheffield"
  },
  {
    "AreaCode":"0115",
    "Town":"Nottingham"
  },
  {
    "AreaCode":"0116",
    "Town":"Leicester"
  },
  {
    "AreaCode":"0117",
    "Town":"Bristol"
  },
  {
    "AreaCode":"0118",
    "Town":"Reading"
  },
  {
    "AreaCode":"01200",
    "Town":"Clitheroe"
  },
  {
    "AreaCode":"01202",
    "Town":"Bournemouth"
  },
  {
    "AreaCode":"01204",
    "Town":"Bolton"
  },
  {
    "AreaCode":"01205",
    "Town":"Boston"
  },
  {
    "AreaCode":"01206",
    "Town":"Colchester"
  },
  {
    "AreaCode":"01207",
    "Town":"Consett"
  },
  {
    "AreaCode":"01208",
    "Town":"Bodmin"
  },
  {
    "AreaCode":"01209",
    "Town":"Redruth"
  },
  {
    "AreaCode":"0121",
    "Town":"Birmingham"
  },
  {
    "AreaCode":"01223",
    "Town":"Cambridge"
  },
  {
    "AreaCode":"01224",
    "Town":"Aberdeen"
  },
  {
    "AreaCode":"01225",
    "Town":"Bath"
  },
  {
    "AreaCode":"01226",
    "Town":"Barnsley"
  },
  {
    "AreaCode":"01227",
    "Town":"Canterbury"
  },
  {
    "AreaCode":"01228",
    "Town":"Carlisle"
  },
  {
    "AreaCode":"01229",
    "Town":"Barrow-in Furness / Millom"
  },
  {
    "AreaCode":"01233",
    "Town":"Ashford (Kent)"
  },
  {
    "AreaCode":"01234",
    "Town":"Bedford"
  },
  {
    "AreaCode":"01235",
    "Town":"Abingdon"
  },
  {
    "AreaCode":"01236",
    "Town":"Coatbridge"
  },
  {
    "AreaCode":"01237",
    "Town":"Bideford"
  },
  {
    "AreaCode":"01239",
    "Town":"Cardigan"
  },
  {
    "AreaCode":"01241",
    "Town":"Arbroath"
  },
  {
    "AreaCode":"01242",
    "Town":"Cheltenham"
  },
  {
    "AreaCode":"01243",
    "Town":"Chichester"
  },
  {
    "AreaCode":"01244",
    "Town":"Chester"
  },
  {
    "AreaCode":"01245",
    "Town":"Chelmsford"
  },
  {
    "AreaCode":"01246",
    "Town":"Chesterfield"
  },
  {
    "AreaCode":"01248",
    "Town":"Bangor (Gwynedd)"
  },
  {
    "AreaCode":"01249",
    "Town":"Chippenham"
  },
  {
    "AreaCode":"01250",
    "Town":"Blairgowrie"
  },
  {
    "AreaCode":"01252",
    "Town":"Aldershot"
  },
  {
    "AreaCode":"01253",
    "Town":"Blackpool"
  },
  {
    "AreaCode":"01254",
    "Town":"Blackburn"
  },
  {
    "AreaCode":"01255",
    "Town":"Clacton-on-Sea"
  },
  {
    "AreaCode":"01256",
    "Town":"Basingstoke"
  },
  {
    "AreaCode":"01257",
    "Town":"Coppull"
  },
  {
    "AreaCode":"01258",
    "Town":"Blandford"
  },
  {
    "AreaCode":"01259",
    "Town":"Alloa"
  },
  {
    "AreaCode":"01260",
    "Town":"Congleton"
  },
  {
    "AreaCode":"01261",
    "Town":"Banff"
  },
  {
    "AreaCode":"01262",
    "Town":"Bridlington"
  },
  {
    "AreaCode":"01263",
    "Town":"Cromer"
  },
  {
    "AreaCode":"01264",
    "Town":"Andover"
  },
  {
    "AreaCode":"01267",
    "Town":"Carmarthen"
  },
  {
    "AreaCode":"01268",
    "Town":"Basildon"
  },
  {
    "AreaCode":"01269",
    "Town":"Ammanford"
  },
  {
    "AreaCode":"01270",
    "Town":"Crewe"
  },
  {
    "AreaCode":"01271",
    "Town":"Barnstaple"
  },
  {
    "AreaCode":"01273",
    "Town":"Brighton"
  },
  {
    "AreaCode":"01274",
    "Town":"Bradford"
  },
  {
    "AreaCode":"01275",
    "Town":"Clevedon"
  },
  {
    "AreaCode":"01276",
    "Town":"Camberley"
  },
  {
    "AreaCode":"01277",
    "Town":"Brentwood"
  },
  {
    "AreaCode":"01278",
    "Town":"Bridgwater"
  },
  {
    "AreaCode":"01279",
    "Town":"Bishops Stortford"
  },
  {
    "AreaCode":"01280",
    "Town":"Buckingham"
  },
  {
    "AreaCode":"01282",
    "Town":"Burnley"
  },
  {
    "AreaCode":"01283",
    "Town":"Burton-on-Trent"
  },
  {
    "AreaCode":"01284",
    "Town":"Bury-St-Edmunds"
  },
  {
    "AreaCode":"01285",
    "Town":"Cirencester"
  },
  {
    "AreaCode":"01286",
    "Town":"Caernarfon"
  },
  {
    "AreaCode":"01287",
    "Town":"Guisborough"
  },
  {
    "AreaCode":"01288",
    "Town":"Bude"
  },
  {
    "AreaCode":"01289",
    "Town":"Berwick-on-Tweed"
  },
  {
    "AreaCode":"01290",
    "Town":"Cumnock"
  },
  {
    "AreaCode":"01291",
    "Town":"Chepstow"
  },
  {
    "AreaCode":"01292",
    "Town":"Ayr"
  },
  {
    "AreaCode":"01293",
    "Town":"Crawley"
  },
  {
    "AreaCode":"01294",
    "Town":"Ardrossan"
  },
  {
    "AreaCode":"01295",
    "Town":"Banbury"
  },
  {
    "AreaCode":"01296",
    "Town":"Aylesbury"
  },
  {
    "AreaCode":"01297",
    "Town":"Axminster"
  },
  {
    "AreaCode":"01298",
    "Town":"Buxton"
  },
  {
    "AreaCode":"01299",
    "Town":"Bewdley"
  },
  {
    "AreaCode":"01300",
    "Town":"Cerne Abbas"
  },
  {
    "AreaCode":"01301",
    "Town":"Arrochar"
  },
  {
    "AreaCode":"01302",
    "Town":"Doncaster"
  },
  {
    "AreaCode":"01303",
    "Town":"Folkestone"
  },
  {
    "AreaCode":"01304",
    "Town":"Dover"
  },
  {
    "AreaCode":"01305",
    "Town":"Dorchester"
  },
  {
    "AreaCode":"01306",
    "Town":"Dorking"
  },
  {
    "AreaCode":"01307",
    "Town":"Forfar"
  },
  {
    "AreaCode":"01308",
    "Town":"Bridport"
  },
  {
    "AreaCode":"01309",
    "Town":"Forres"
  },
  {
    "AreaCode":"0131",
    "Town":"Edinburgh"
  },
  {
    "AreaCode":"01320",
    "Town":"Fort Augustus"
  },
  {
    "AreaCode":"01322",
    "Town":"Dartford"
  },
  {
    "AreaCode":"01323",
    "Town":"Eastbourne"
  },
  {
    "AreaCode":"01324",
    "Town":"Falkirk"
  },
  {
    "AreaCode":"01325",
    "Town":"Darlington"
  },
  {
    "AreaCode":"01326",
    "Town":"Falmouth"
  },
  {
    "AreaCode":"01327",
    "Town":"Daventry"
  },
  {
    "AreaCode":"01328",
    "Town":"Fakenham"
  },
  {
    "AreaCode":"01329",
    "Town":"Fareham"
  },
  {
    "AreaCode":"01330",
    "Town":"Banchory"
  },
  {
    "AreaCode":"01332",
    "Town":"Derby"
  },
  {
    "AreaCode":"01333",
    "Town":"Anstruther"
  },
  {
    "AreaCode":"01334",
    "Town":"St Andrews"
  },
  {
    "AreaCode":"01335",
    "Town":"Ashbourne"
  },
  {
    "AreaCode":"01337",
    "Town":"Ladybank"
  },
  {
    "AreaCode":"01339",
    "Town":"Aboyne / Ballater"
  },
  {
    "AreaCode":"01340",
    "Town":"Craigellachie"
  },
  {
    "AreaCode":"01341",
    "Town":"Barmouth"
  },
  {
    "AreaCode":"01342",
    "Town":"East Grinstead"
  },
  {
    "AreaCode":"01343",
    "Town":"Elgin"
  },
  {
    "AreaCode":"01344",
    "Town":"Bracknell"
  },
  {
    "AreaCode":"01346",
    "Town":"Fraserburgh"
  },
  {
    "AreaCode":"01347",
    "Town":"Easingwold"
  },
  {
    "AreaCode":"01348",
    "Town":"Fishguard"
  },
  {
    "AreaCode":"01349",
    "Town":"Dingwall"
  },
  {
    "AreaCode":"01350",
    "Town":"Dunkeld"
  },
  {
    "AreaCode":"01352",
    "Town":"Mold"
  },
  {
    "AreaCode":"01353",
    "Town":"Ely"
  },
  {
    "AreaCode":"01354",
    "Town":"Chatteris"
  },
  {
    "AreaCode":"01355",
    "Town":"East Kilbride"
  },
  {
    "AreaCode":"01356",
    "Town":"Brechin"
  },
  {
    "AreaCode":"01357",
    "Town":"Strathaven"
  },
  {
    "AreaCode":"01358",
    "Town":"Ellon"
  },
  {
    "AreaCode":"01359",
    "Town":"Pakenham"
  },
  {
    "AreaCode":"01360",
    "Town":"Killearn"
  },
  {
    "AreaCode":"01361",
    "Town":"Duns"
  },
  {
    "AreaCode":"01362",
    "Town":"Dereham"
  },
  {
    "AreaCode":"01363",
    "Town":"Crediton"
  },
  {
    "AreaCode":"01364",
    "Town":"Ashburton"
  },
  {
    "AreaCode":"01366",
    "Town":"Downham Market"
  },
  {
    "AreaCode":"01367",
    "Town":"Faringdon"
  },
  {
    "AreaCode":"01368",
    "Town":"Dunbar"
  },
  {
    "AreaCode":"01369",
    "Town":"Dunoon"
  },
  {
    "AreaCode":"01371",
    "Town":"Great Dunmow"
  },
  {
    "AreaCode":"01372",
    "Town":"Esher"
  },
  {
    "AreaCode":"01373",
    "Town":"Frome"
  },
  {
    "AreaCode":"01375",
    "Town":"Grays Thurrock"
  },
  {
    "AreaCode":"01376",
    "Town":"Braintree"
  },
  {
    "AreaCode":"01377",
    "Town":"Driffield"
  },
  {
    "AreaCode":"01379",
    "Town":"Diss"
  },
  {
    "AreaCode":"01380",
    "Town":"Devizes"
  },
  {
    "AreaCode":"01381",
    "Town":"Fortrose"
  },
  {
    "AreaCode":"01382",
    "Town":"Dundee"
  },
  {
    "AreaCode":"01383",
    "Town":"Dunfermline"
  },
  {
    "AreaCode":"01384",
    "Town":"Dudley"
  },
  {
    "AreaCode":"01386",
    "Town":"Evesham"
  },
  {
    "AreaCode":"01387",
    "Town":"Dumfries"
  },
  {
    "AreaCode":"013873",
    "Town":"Langholm"
  },
  {
    "AreaCode":"01388",
    "Town":"Bishop Auckland / Stanhope"
  },
  {
    "AreaCode":"01389",
    "Town":"Dumbarton"
  },
  {
    "AreaCode":"01392",
    "Town":"Exeter"
  },
  {
    "AreaCode":"01394",
    "Town":"Felixstowe"
  },
  {
    "AreaCode":"01395",
    "Town":"Budleigh Salterton"
  },
  {
    "AreaCode":"01397",
    "Town":"Fort William"
  },
  {
    "AreaCode":"01398",
    "Town":"Dulverton"
  },
  {
    "AreaCode":"01400",
    "Town":"Honington"
  },
  {
    "AreaCode":"01403",
    "Town":"Horsham"
  },
  {
    "AreaCode":"01404",
    "Town":"Honiton"
  },
  {
    "AreaCode":"01405",
    "Town":"Goole"
  },
  {
    "AreaCode":"01406",
    "Town":"Holbeach"
  },
  {
    "AreaCode":"01407",
    "Town":"Holyhead"
  },
  {
    "AreaCode":"01408",
    "Town":"Golspie"
  },
  {
    "AreaCode":"01409",
    "Town":"Holsworthy"
  },
  {
    "AreaCode":"0141",
    "Town":"Glasgow"
  },
  {
    "AreaCode":"01420",
    "Town":"Alton"
  },
  {
    "AreaCode":"01422",
    "Town":"Halifax"
  },
  {
    "AreaCode":"01423",
    "Town":"Boroughbridge / Harrogate"
  },
  {
    "AreaCode":"01424",
    "Town":"Hastings"
  },
  {
    "AreaCode":"01425",
    "Town":"Ringwood"
  },
  {
    "AreaCode":"01427",
    "Town":"Gainsborough"
  },
  {
    "AreaCode":"01428",
    "Town":"Haslemere"
  },
  {
    "AreaCode":"01429",
    "Town":"Hartlepool"
  },
  {
    "AreaCode":"01430",
    "Town":"Market Weighton / North Cave"
  },
  {
    "AreaCode":"01431",
    "Town":"Helmsdale"
  },
  {
    "AreaCode":"01432",
    "Town":"Hereford"
  },
  {
    "AreaCode":"01433",
    "Town":"Hathersage"
  },
  {
    "AreaCode":"01434",
    "Town":"Bellingham / Haltwhistle / Hexham"
  },
  {
    "AreaCode":"01435",
    "Town":"Heathfield"
  },
  {
    "AreaCode":"01436",
    "Town":"Helensburgh"
  },
  {
    "AreaCode":"01437",
    "Town":"Clynderwen / Haverfordwest"
  },
  {
    "AreaCode":"01438",
    "Town":"Stevenage"
  },
  {
    "AreaCode":"01439",
    "Town":"Helmsley"
  },
  {
    "AreaCode":"01440",
    "Town":"Haverhill"
  },
  {
    "AreaCode":"01442",
    "Town":"Hemel Hempstead"
  },
  {
    "AreaCode":"01443",
    "Town":"Pontypridd"
  },
  {
    "AreaCode":"01444",
    "Town":"Haywards Heath"
  },
  {
    "AreaCode":"01445",
    "Town":"Gairloch"
  },
  {
    "AreaCode":"01446",
    "Town":"Barry"
  },
  {
    "AreaCode":"01449",
    "Town":"Stowmarket"
  },
  {
    "AreaCode":"01450",
    "Town":"Hawick"
  },
  {
    "AreaCode":"01451",
    "Town":"Stow-on-the-Wold"
  },
  {
    "AreaCode":"01452",
    "Town":"Gloucester"
  },
  {
    "AreaCode":"01453",
    "Town":"Dursley"
  },
  {
    "AreaCode":"01454",
    "Town":"Chipping Sodbury"
  },
  {
    "AreaCode":"01455",
    "Town":"Hinckley"
  },
  {
    "AreaCode":"01456",
    "Town":"Glenurquhart"
  },
  {
    "AreaCode":"01457",
    "Town":"Glossop"
  },
  {
    "AreaCode":"01458",
    "Town":"Glastonbury"
  },
  {
    "AreaCode":"01460",
    "Town":"Chard"
  },
  {
    "AreaCode":"01461",
    "Town":"Gretna"
  },
  {
    "AreaCode":"01462",
    "Town":"Hitchin"
  },
  {
    "AreaCode":"01463",
    "Town":"Inverness"
  },
  {
    "AreaCode":"01464",
    "Town":"Insch"
  },
  {
    "AreaCode":"01465",
    "Town":"Girvan"
  },
  {
    "AreaCode":"01466",
    "Town":"Huntly"
  },
  {
    "AreaCode":"01467",
    "Town":"Inverurie"
  },
  {
    "AreaCode":"01469",
    "Town":"Killingholme"
  },
  {
    "AreaCode":"01470",
    "Town":"Isle of Skye – Edinbane"
  },
  {
    "AreaCode":"01471",
    "Town":"Isle of Skye – Broadford"
  },
  {
    "AreaCode":"01472",
    "Town":"Grimsby"
  },
  {
    "AreaCode":"01473",
    "Town":"Ipswich"
  },
  {
    "AreaCode":"01474",
    "Town":"Gravesend"
  },
  {
    "AreaCode":"01475",
    "Town":"Greenock"
  },
  {
    "AreaCode":"01476",
    "Town":"Grantham"
  },
  {
    "AreaCode":"01477",
    "Town":"Holmes Chapel"
  },
  {
    "AreaCode":"01478",
    "Town":"Isle of Skye – Portree"
  },
  {
    "AreaCode":"01479",
    "Town":"Grantown-on-Spey"
  },
  {
    "AreaCode":"01480",
    "Town":"Huntingdon"
  },
  {
    "AreaCode":"01481",
    "Town":"Guernsey"
  },
  {
    "AreaCode":"01482",
    "Town":"Hull"
  },
  {
    "AreaCode":"01483",
    "Town":"Guildford"
  },
  {
    "AreaCode":"01484",
    "Town":"Huddersfield"
  },
  {
    "AreaCode":"01485",
    "Town":"Hunstanton"
  },
  {
    "AreaCode":"01487",
    "Town":"Warboys"
  },
  {
    "AreaCode":"01488",
    "Town":"Hungerford"
  },
  {
    "AreaCode":"01489",
    "Town":"Bishops Waltham"
  },
  {
    "AreaCode":"01490",
    "Town":"Corwen"
  },
  {
    "AreaCode":"01491",
    "Town":"Henley-on-Thames"
  },
  {
    "AreaCode":"01492",
    "Town":"Colwyn Bay"
  },
  {
    "AreaCode":"01493",
    "Town":"Great Yarmouth"
  },
  {
    "AreaCode":"01494",
    "Town":"High Wycombe"
  },
  {
    "AreaCode":"01495",
    "Town":"Pontypool"
  },
  {
    "AreaCode":"01496",
    "Town":"Port Ellen"
  },
  {
    "AreaCode":"01497",
    "Town":"Hay-on-Wye"
  },
  {
    "AreaCode":"01499",
    "Town":"Inveraray"
  },
  {
    "AreaCode":"01501",
    "Town":"Harthill"
  },
  {
    "AreaCode":"01502",
    "Town":"Lowestoft"
  },
  {
    "AreaCode":"01503",
    "Town":"Looe"
  },
  {
    "AreaCode":"01505",
    "Town":"Johnstone"
  },
  {
    "AreaCode":"01506",
    "Town":"Bathgate"
  },
  {
    "AreaCode":"01507",
    "Town":"Alford (Lincs) / Louth / Spilsby"
  },
  {
    "AreaCode":"01508",
    "Town":"Brooke"
  },
  {
    "AreaCode":"01509",
    "Town":"Loughborough"
  },
  {
    "AreaCode":"0151",
    "Town":"Liverpool"
  },
  {
    "AreaCode":"01520",
    "Town":"Lochcarron"
  },
  {
    "AreaCode":"01522",
    "Town":"Lincoln"
  },
  {
    "AreaCode":"01524",
    "Town":"Lancaster"
  },
  {
    "AreaCode":"015242",
    "Town":"Hornby"
  },
  {
    "AreaCode":"01525",
    "Town":"Leighton Buzzard"
  },
  {
    "AreaCode":"01526",
    "Town":"Martin"
  },
  {
    "AreaCode":"01527",
    "Town":"Redditch"
  },
  {
    "AreaCode":"01528",
    "Town":"Laggan"
  },
  {
    "AreaCode":"01529",
    "Town":"Sleaford"
  },
  {
    "AreaCode":"01530",
    "Town":"Coalville"
  },
  {
    "AreaCode":"01531",
    "Town":"Ledbury"
  },
  {
    "AreaCode":"01534",
    "Town":"Jersey"
  },
  {
    "AreaCode":"01535",
    "Town":"Keighley"
  },
  {
    "AreaCode":"01536",
    "Town":"Kettering"
  },
  {
    "AreaCode":"01538",
    "Town":"Ipstones"
  },
  {
    "AreaCode":"01539",
    "Town":"Kendal"
  },
  {
    "AreaCode":"015394",
    "Town":"Hawkshead"
  },
  {
    "AreaCode":"015395",
    "Town":"Grange-Over-Sands"
  },
  {
    "AreaCode":"015396",
    "Town":"Sedbergh"
  },
  {
    "AreaCode":"01540",
    "Town":"Kingussie"
  },
  {
    "AreaCode":"01542",
    "Town":"Keith"
  },
  {
    "AreaCode":"01543",
    "Town":"Cannock"
  },
  {
    "AreaCode":"01544",
    "Town":"Kington"
  },
  {
    "AreaCode":"01545",
    "Town":"Llanarth"
  },
  {
    "AreaCode":"01546",
    "Town":"Lochgilphead"
  },
  {
    "AreaCode":"01547",
    "Town":"Knighton"
  },
  {
    "AreaCode":"01548",
    "Town":"Kingsbridge"
  },
  {
    "AreaCode":"01549",
    "Town":"Lairg"
  },
  {
    "AreaCode":"01550",
    "Town":"Llandovery"
  },
  {
    "AreaCode":"01553",
    "Town":"Kings Lynn"
  },
  {
    "AreaCode":"01554",
    "Town":"Llanelli"
  },
  {
    "AreaCode":"01555",
    "Town":"Lanark"
  },
  {
    "AreaCode":"01556",
    "Town":"Castle Douglas"
  },
  {
    "AreaCode":"01557",
    "Town":"Kirkcudbright"
  },
  {
    "AreaCode":"01558",
    "Town":"Llandeilo"
  },
  {
    "AreaCode":"01559",
    "Town":"Llandysul"
  },
  {
    "AreaCode":"01560",
    "Town":"Moscow"
  },
  {
    "AreaCode":"01561",
    "Town":"Laurencekirk"
  },
  {
    "AreaCode":"01562",
    "Town":"Kidderminster"
  },
  {
    "AreaCode":"01563",
    "Town":"Kilmarnock"
  },
  {
    "AreaCode":"01564",
    "Town":"Lapworth"
  },
  {
    "AreaCode":"01565",
    "Town":"Knutsford"
  },
  {
    "AreaCode":"01566",
    "Town":"Launceston"
  },
  {
    "AreaCode":"01567",
    "Town":"Killin"
  },
  {
    "AreaCode":"01568",
    "Town":"Leominster"
  },
  {
    "AreaCode":"01569",
    "Town":"Stonehaven"
  },
  {
    "AreaCode":"01570",
    "Town":"Lampeter"
  },
  {
    "AreaCode":"01571",
    "Town":"Lochinver"
  },
  {
    "AreaCode":"01572",
    "Town":"Oakham"
  },
  {
    "AreaCode":"01573",
    "Town":"Kelso"
  },
  {
    "AreaCode":"01575",
    "Town":"Kirriemuir"
  },
  {
    "AreaCode":"01576",
    "Town":"Lockerbie"
  },
  {
    "AreaCode":"01577",
    "Town":"Kinross"
  },
  {
    "AreaCode":"01578",
    "Town":"Lauder"
  },
  {
    "AreaCode":"01579",
    "Town":"Liskeard"
  },
  {
    "AreaCode":"01580",
    "Town":"Cranbrook"
  },
  {
    "AreaCode":"01581",
    "Town":"New Luce"
  },
  {
    "AreaCode":"01582",
    "Town":"Luton"
  },
  {
    "AreaCode":"01583",
    "Town":"Carradale"
  },
  {
    "AreaCode":"01584",
    "Town":"Ludlow"
  },
  {
    "AreaCode":"01586",
    "Town":"Campbeltown"
  },
  {
    "AreaCode":"01588",
    "Town":"Bishops Castle"
  },
  {
    "AreaCode":"01590",
    "Town":"Lymington"
  },
  {
    "AreaCode":"01591",
    "Town":"Llanwrtyd Wells"
  },
  {
    "AreaCode":"01592",
    "Town":"Kirkcaldy"
  },
  {
    "AreaCode":"01593",
    "Town":"Lybster"
  },
  {
    "AreaCode":"01594",
    "Town":"Lydney"
  },
  {
    "AreaCode":"01595",
    "Town":"Lerwick, Shetland Islands"
  },
  {
    "AreaCode":"01597",
    "Town":"Llandrindod Wells"
  },
  {
    "AreaCode":"01598",
    "Town":"Lynton"
  },
  {
    "AreaCode":"01599",
    "Town":"Kyle"
  },
  {
    "AreaCode":"01600",
    "Town":"Monmouth"
  },
  {
    "AreaCode":"01603",
    "Town":"Norwich"
  },
  {
    "AreaCode":"01604",
    "Town":"Northampton"
  },
  {
    "AreaCode":"01606",
    "Town":"Northwich"
  },
  {
    "AreaCode":"01608",
    "Town":"Chipping Norton"
  },
  {
    "AreaCode":"01609",
    "Town":"Northallerton"
  },
  {
    "AreaCode":"0161",
    "Town":"Manchester"
  },
  {
    "AreaCode":"01620",
    "Town":"North Berwick"
  },
  {
    "AreaCode":"01621",
    "Town":"Maldon"
  },
  {
    "AreaCode":"01622",
    "Town":"Maidstone"
  },
  {
    "AreaCode":"01623",
    "Town":"Mansfield"
  },
  {
    "AreaCode":"01624",
    "Town":"Isle of Man"
  },
  {
    "AreaCode":"01625",
    "Town":"Macclesfield"
  },
  {
    "AreaCode":"01626",
    "Town":"Newton Abbot"
  },
  {
    "AreaCode":"01628",
    "Town":"Maidenhead"
  },
  {
    "AreaCode":"01629",
    "Town":"Matlock"
  },
  {
    "AreaCode":"01630",
    "Town":"Market Drayton"
  },
  {
    "AreaCode":"01631",
    "Town":"Oban"
  },
  {
    "AreaCode":"01633",
    "Town":"Newport"
  },
  {
    "AreaCode":"01634",
    "Town":"Medway"
  },
  {
    "AreaCode":"01635",
    "Town":"Newbury"
  },
  {
    "AreaCode":"01636",
    "Town":"Newark"
  },
  {
    "AreaCode":"01637",
    "Town":"Newquay"
  },
  {
    "AreaCode":"01638",
    "Town":"Newmarket"
  },
  {
    "AreaCode":"01639",
    "Town":"Neath"
  },
  {
    "AreaCode":"01641",
    "Town":"Strathy"
  },
  {
    "AreaCode":"01642",
    "Town":"Middlesbrough"
  },
  {
    "AreaCode":"01643",
    "Town":"Minehead"
  },
  {
    "AreaCode":"01644",
    "Town":"New Galloway"
  },
  {
    "AreaCode":"01646",
    "Town":"Milford Haven"
  },
  {
    "AreaCode":"01647",
    "Town":"Moretonhampstead"
  },
  {
    "AreaCode":"01650",
    "Town":"Cemmaes Road"
  },
  {
    "AreaCode":"01651",
    "Town":"Oldmeldrum"
  },
  {
    "AreaCode":"01652",
    "Town":"Brigg"
  },
  {
    "AreaCode":"01653",
    "Town":"Malton"
  },
  {
    "AreaCode":"01654",
    "Town":"Machynlleth"
  },
  {
    "AreaCode":"01655",
    "Town":"Maybole"
  },
  {
    "AreaCode":"01656",
    "Town":"Bridgend"
  },
  {
    "AreaCode":"01659",
    "Town":"Sanquhar"
  },
  {
    "AreaCode":"01661",
    "Town":"Prudhoe"
  },
  {
    "AreaCode":"01663",
    "Town":"New Mills"
  },
  {
    "AreaCode":"01664",
    "Town":"Melton Mowbray"
  },
  {
    "AreaCode":"01665",
    "Town":"Alnwick"
  },
  {
    "AreaCode":"01666",
    "Town":"Malmesbury"
  },
  {
    "AreaCode":"01667",
    "Town":"Nairn"
  },
  {
    "AreaCode":"01668",
    "Town":"Bamburgh"
  },
  {
    "AreaCode":"01669",
    "Town":"Rothbury"
  },
  {
    "AreaCode":"01670",
    "Town":"Morpeth"
  },
  {
    "AreaCode":"01671",
    "Town":"Newton Stewart"
  },
  {
    "AreaCode":"01672",
    "Town":"Marlborough"
  },
  {
    "AreaCode":"01673",
    "Town":"Market Rasen"
  },
  {
    "AreaCode":"01674",
    "Town":"Montrose"
  },
  {
    "AreaCode":"01675",
    "Town":"Coleshill"
  },
  {
    "AreaCode":"01676",
    "Town":"Meriden"
  },
  {
    "AreaCode":"01677",
    "Town":"Bedale"
  },
  {
    "AreaCode":"01678",
    "Town":"Bala"
  },
  {
    "AreaCode":"01680",
    "Town":"Isle of Mull – Craignure"
  },
  {
    "AreaCode":"01681",
    "Town":"Isle of Mull – Fionnphort"
  },
  {
    "AreaCode":"01683",
    "Town":"Moffat"
  },
  {
    "AreaCode":"01684",
    "Town":"Malvern"
  },
  {
    "AreaCode":"01685",
    "Town":"Merthyr Tydfil"
  },
  {
    "AreaCode":"01686",
    "Town":"Llanidloes / Newtown"
  },
  {
    "AreaCode":"01687",
    "Town":"Mallaig"
  },
  {
    "AreaCode":"01688",
    "Town":"Isle of Mull – Tobermory"
  },
  {
    "AreaCode":"01689",
    "Town":"Orpington"
  },
  {
    "AreaCode":"01690",
    "Town":"Betws-y-Coed"
  },
  {
    "AreaCode":"01691",
    "Town":"Oswestry"
  },
  {
    "AreaCode":"01692",
    "Town":"North Walsham"
  },
  {
    "AreaCode":"01694",
    "Town":"Church Stretton"
  },
  {
    "AreaCode":"01695",
    "Town":"Skelmersdale"
  },
  {
    "AreaCode":"01697",
    "Town":"Brampton (6 figure numbers)"
  },
  {
    "AreaCode":"016973",
    "Town":"Wigton"
  },
  {
    "AreaCode":"016974",
    "Town":"Raughton Head"
  },
  {
    "AreaCode":"016977",
    "Town":"Brampton (4 and 5 figure numbers)"
  },
  {
    "AreaCode":"01698",
    "Town":"Motherwell"
  },
  {
    "AreaCode":"01700",
    "Town":"Rothesay"
  },
  {
    "AreaCode":"01702",
    "Town":"Southend-on-Sea"
  },
  {
    "AreaCode":"01704",
    "Town":"Southport"
  },
  {
    "AreaCode":"01706",
    "Town":"Rochdale"
  },
  {
    "AreaCode":"01707",
    "Town":"Welwyn Garden City"
  },
  {
    "AreaCode":"01708",
    "Town":"Romford"
  },
  {
    "AreaCode":"01709",
    "Town":"Rotherham"
  },
  {
    "AreaCode":"01720",
    "Town":"Isles of Scilly"
  },
  {
    "AreaCode":"01721",
    "Town":"Peebles"
  },
  {
    "AreaCode":"01722",
    "Town":"Salisbury"
  },
  {
    "AreaCode":"01723",
    "Town":"Scarborough"
  },
  {
    "AreaCode":"01724",
    "Town":"Scunthorpe"
  },
  {
    "AreaCode":"01725",
    "Town":"Rockbourne"
  },
  {
    "AreaCode":"01726",
    "Town":"St Austell"
  },
  {
    "AreaCode":"01727",
    "Town":"St Albans"
  },
  {
    "AreaCode":"01728",
    "Town":"Saxmundham"
  },
  {
    "AreaCode":"01729",
    "Town":"Settle"
  },
  {
    "AreaCode":"01730",
    "Town":"Petersfield"
  },
  {
    "AreaCode":"01732",
    "Town":"Sevenoaks"
  },
  {
    "AreaCode":"01733",
    "Town":"Peterborough"
  },
  {
    "AreaCode":"01736",
    "Town":"Penzance"
  },
  {
    "AreaCode":"01737",
    "Town":"Redhill"
  },
  {
    "AreaCode":"01738",
    "Town":"Perth"
  },
  {
    "AreaCode":"01740",
    "Town":"Sedgefield"
  },
  {
    "AreaCode":"01743",
    "Town":"Shrewsbury"
  },
  {
    "AreaCode":"01744",
    "Town":"St Helens"
  },
  {
    "AreaCode":"01745",
    "Town":"Rhyl"
  },
  {
    "AreaCode":"01746",
    "Town":"Bridgnorth"
  },
  {
    "AreaCode":"01747",
    "Town":"Shaftesbury"
  },
  {
    "AreaCode":"01748",
    "Town":"Richmond"
  },
  {
    "AreaCode":"01749",
    "Town":"Shepton Mallet"
  },
  {
    "AreaCode":"01750",
    "Town":"Selkirk"
  },
  {
    "AreaCode":"01751",
    "Town":"Pickering"
  },
  {
    "AreaCode":"01752",
    "Town":"Plymouth"
  },
  {
    "AreaCode":"01753",
    "Town":"Slough"
  },
  {
    "AreaCode":"01754",
    "Town":"Skegness"
  },
  {
    "AreaCode":"01756",
    "Town":"Skipton"
  },
  {
    "AreaCode":"01757",
    "Town":"Selby"
  },
  {
    "AreaCode":"01758",
    "Town":"Pwllheli"
  },
  {
    "AreaCode":"01759",
    "Town":"Pocklington"
  },
  {
    "AreaCode":"01760",
    "Town":"Swaffham"
  },
  {
    "AreaCode":"01761",
    "Town":"Temple Cloud"
  },
  {
    "AreaCode":"01763",
    "Town":"Royston"
  },
  {
    "AreaCode":"01764",
    "Town":"Crieff"
  },
  {
    "AreaCode":"01765",
    "Town":"Ripon"
  },
  {
    "AreaCode":"01766",
    "Town":"Porthmadog"
  },
  {
    "AreaCode":"01767",
    "Town":"Sandy"
  },
  {
    "AreaCode":"01768",
    "Town":"Penrith"
  },
  {
    "AreaCode":"017683",
    "Town":"Appleby"
  },
  {
    "AreaCode":"017684",
    "Town":"Pooley Bridge"
  },
  {
    "AreaCode":"017687",
    "Town":"Keswick"
  },
  {
    "AreaCode":"01769",
    "Town":"South Molton"
  },
  {
    "AreaCode":"01770",
    "Town":"Isle of Arran"
  },
  {
    "AreaCode":"01771",
    "Town":"Maud"
  },
  {
    "AreaCode":"01772",
    "Town":"Preston"
  },
  {
    "AreaCode":"01773",
    "Town":"Ripley"
  },
  {
    "AreaCode":"01775",
    "Town":"Spalding"
  },
  {
    "AreaCode":"01776",
    "Town":"Stranraer"
  },
  {
    "AreaCode":"01777",
    "Town":"Retford"
  },
  {
    "AreaCode":"01778",
    "Town":"Bourne"
  },
  {
    "AreaCode":"01779",
    "Town":"Peterhead"
  },
  {
    "AreaCode":"01780",
    "Town":"Stamford"
  },
  {
    "AreaCode":"01782",
    "Town":"Stoke-on-Trent"
  },
  {
    "AreaCode":"01784",
    "Town":"Staines"
  },
  {
    "AreaCode":"01785",
    "Town":"Stafford"
  },
  {
    "AreaCode":"01786",
    "Town":"Stirling"
  },
  {
    "AreaCode":"01787",
    "Town":"Sudbury"
  },
  {
    "AreaCode":"01788",
    "Town":"Rugby"
  },
  {
    "AreaCode":"01789",
    "Town":"Stratford-upon-Avon"
  },
  {
    "AreaCode":"01790",
    "Town":"Spilsby"
  },
  {
    "AreaCode":"01792",
    "Town":"Swansea"
  },
  {
    "AreaCode":"01793",
    "Town":"Swindon"
  },
  {
    "AreaCode":"01794",
    "Town":"Romsey"
  },
  {
    "AreaCode":"01795",
    "Town":"Sittingbourne"
  },
  {
    "AreaCode":"01796",
    "Town":"Pitlochry"
  },
  {
    "AreaCode":"01797",
    "Town":"Rye"
  },
  {
    "AreaCode":"01798",
    "Town":"Pulborough"
  },
  {
    "AreaCode":"01799",
    "Town":"Saffron Walden"
  },
  {
    "AreaCode":"01803",
    "Town":"Torquay"
  },
  {
    "AreaCode":"01805",
    "Town":"Torrington"
  },
  {
    "AreaCode":"01806",
    "Town":"Sullom Voe, Shetland Islands"
  },
  {
    "AreaCode":"01807",
    "Town":"Ballindalloch"
  },
  {
    "AreaCode":"01808",
    "Town":"Tomatin"
  },
  {
    "AreaCode":"01809",
    "Town":"Tomdoun"
  },
  {
    "AreaCode":"01821",
    "Town":"Kinrossie"
  },
  {
    "AreaCode":"01822",
    "Town":"Tavistock"
  },
  {
    "AreaCode":"01823",
    "Town":"Taunton"
  },
  {
    "AreaCode":"01824",
    "Town":"Ruthin"
  },
  {
    "AreaCode":"01825",
    "Town":"Uckfield"
  },
  {
    "AreaCode":"01827",
    "Town":"Tamworth"
  },
  {
    "AreaCode":"01828",
    "Town":"Coupar Angus"
  },
  {
    "AreaCode":"01829",
    "Town":"Tarporley"
  },
  {
    "AreaCode":"01830",
    "Town":"Kirkwhelpington"
  },
  {
    "AreaCode":"01832",
    "Town":"Clopton"
  },
  {
    "AreaCode":"01833",
    "Town":"Barnard Castle"
  },
  {
    "AreaCode":"01834",
    "Town":"Narberth"
  },
  {
    "AreaCode":"01835",
    "Town":"St Boswells"
  },
  {
    "AreaCode":"01837",
    "Town":"Okehampton"
  },
  {
    "AreaCode":"01838",
    "Town":"Dalmally"
  },
  {
    "AreaCode":"01840",
    "Town":"Camelford"
  },
  {
    "AreaCode":"01841",
    "Town":"Padstow"
  },
  {
    "AreaCode":"01842",
    "Town":"Thetford"
  },
  {
    "AreaCode":"01843",
    "Town":"Thanet"
  },
  {
    "AreaCode":"01844",
    "Town":"Thame"
  },
  {
    "AreaCode":"01845",
    "Town":"Thirsk"
  },
  {
    "AreaCode":"01847",
    "Town":"Thurso / Tongue"
  },
  {
    "AreaCode":"01848",
    "Town":"Thornhill"
  },
  {
    "AreaCode":"01851",
    "Town":"Lewis and Great Bernera, Outer Hebrides"
  },
  {
    "AreaCode":"01852",
    "Town":"Kilmelford"
  },
  {
    "AreaCode":"01854",
    "Town":"Ullapool"
  },
  {
    "AreaCode":"01855",
    "Town":"Ballachulish"
  },
  {
    "AreaCode":"01856",
    "Town":"Orkney"
  },
  {
    "AreaCode":"01857",
    "Town":"Sanday"
  },
  {
    "AreaCode":"01858",
    "Town":"Market Harborough"
  },
  {
    "AreaCode":"01859",
    "Town":"Harris, Outer Hebrides"
  },
  {
    "AreaCode":"01862",
    "Town":"Tain"
  },
  {
    "AreaCode":"01863",
    "Town":"Ardgay"
  },
  {
    "AreaCode":"01864",
    "Town":"Abington"
  },
  {
    "AreaCode":"01865",
    "Town":"Oxford"
  },
  {
    "AreaCode":"01866",
    "Town":"Kilchrenan"
  },
  {
    "AreaCode":"01869",
    "Town":"Bicester"
  },
  {
    "AreaCode":"01870",
    "Town":"Benebecula, Outer Hebrides"
  },
  {
    "AreaCode":"01871",
    "Town":"Barra, Outer Hebrides"
  },
  {
    "AreaCode":"01872",
    "Town":"Truro"
  },
  {
    "AreaCode":"01873",
    "Town":"Abergavenny"
  },
  {
    "AreaCode":"01874",
    "Town":"Brecon"
  },
  {
    "AreaCode":"01875",
    "Town":"Tranent"
  },
  {
    "AreaCode":"01876",
    "Town":"North Uist, Outer Hebrides"
  },
  {
    "AreaCode":"01877",
    "Town":"Callander"
  },
  {
    "AreaCode":"01878",
    "Town":"South Uist, Outer Hebrides"
  },
  {
    "AreaCode":"01879",
    "Town":"Scarinish"
  },
  {
    "AreaCode":"01880",
    "Town":"Tarbert"
  },
  {
    "AreaCode":"01882",
    "Town":"Kinloch Rannoch"
  },
  {
    "AreaCode":"01883",
    "Town":"Caterham"
  },
  {
    "AreaCode":"01884",
    "Town":"Tiverton"
  },
  {
    "AreaCode":"01885",
    "Town":"Bromyard"
  },
  {
    "AreaCode":"01886",
    "Town":"Knightwick"
  },
  {
    "AreaCode":"01887",
    "Town":"Aberfeldy"
  },
  {
    "AreaCode":"01888",
    "Town":"Turriff"
  },
  {
    "AreaCode":"01889",
    "Town":"Rugeley"
  },
  {
    "AreaCode":"01890",
    "Town":"Ayton / Coldstream"
  },
  {
    "AreaCode":"01892",
    "Town":"Tunbridge Wells"
  },
  {
    "AreaCode":"01895",
    "Town":"Uxbridge"
  },
  {
    "AreaCode":"01896",
    "Town":"Galashiels"
  },
  {
    "AreaCode":"01899",
    "Town":"Biggar"
  },
  {
    "AreaCode":"01900",
    "Town":"Workington"
  },
  {
    "AreaCode":"01902",
    "Town":"Wolverhampton"
  },
  {
    "AreaCode":"01903",
    "Town":"Worthing"
  },
  {
    "AreaCode":"01904",
    "Town":"York"
  },
  {
    "AreaCode":"01905",
    "Town":"Worcester"
  },
  {
    "AreaCode":"01908",
    "Town":"Milton Keynes"
  },
  {
    "AreaCode":"01909",
    "Town":"Worksop"
  },
  {
    "AreaCode":"0191",
    "Town":"Tyneside / Durham / Sunderland"
  },
  {
    "AreaCode":"01920",
    "Town":"Ware"
  },
  {
    "AreaCode":"01922",
    "Town":"Walsall"
  },
  {
    "AreaCode":"01923",
    "Town":"Watford"
  },
  {
    "AreaCode":"01924",
    "Town":"Wakefield"
  },
  {
    "AreaCode":"01925",
    "Town":"Warrington"
  },
  {
    "AreaCode":"01926",
    "Town":"Warwick"
  },
  {
    "AreaCode":"01928",
    "Town":"Runcorn"
  },
  {
    "AreaCode":"01929",
    "Town":"Wareham"
  },
  {
    "AreaCode":"01931",
    "Town":"Shap"
  },
  {
    "AreaCode":"01932",
    "Town":"Weybridge"
  },
  {
    "AreaCode":"01933",
    "Town":"Wellingborough"
  },
  {
    "AreaCode":"01934",
    "Town":"Weston-Super-Mare"
  },
  {
    "AreaCode":"01935",
    "Town":"Yeovil"
  },
  {
    "AreaCode":"01937",
    "Town":"Wetherby"
  },
  {
    "AreaCode":"01938",
    "Town":"Welshpool"
  },
  {
    "AreaCode":"01939",
    "Town":"Wem"
  },
  {
    "AreaCode":"01942",
    "Town":"Wigan"
  },
  {
    "AreaCode":"01943",
    "Town":"Guiseley"
  },
  {
    "AreaCode":"01944",
    "Town":"West Heslerton"
  },
  {
    "AreaCode":"01945",
    "Town":"Wisbech"
  },
  {
    "AreaCode":"01946",
    "Town":"Whitehaven"
  },
  {
    "AreaCode":"019467",
    "Town":"Gosforth"
  },
  {
    "AreaCode":"01947",
    "Town":"Whitby"
  },
  {
    "AreaCode":"01948",
    "Town":"Whitchurch"
  },
  {
    "AreaCode":"01949",
    "Town":"Whatton"
  },
  {
    "AreaCode":"01950",
    "Town":"Sandwick, Shetland Islands"
  },
  {
    "AreaCode":"01951",
    "Town":"Colonsay"
  },
  {
    "AreaCode":"01952",
    "Town":"Telford"
  },
  {
    "AreaCode":"01953",
    "Town":"Wymondham"
  },
  {
    "AreaCode":"01954",
    "Town":"Madingley"
  },
  {
    "AreaCode":"01955",
    "Town":"Wick"
  },
  {
    "AreaCode":"01957",
    "Town":"Mid Yell, Shetland Islands"
  },
  {
    "AreaCode":"01959",
    "Town":"Westerham"
  },
  {
    "AreaCode":"01962",
    "Town":"Winchester"
  },
  {
    "AreaCode":"01963",
    "Town":"Wincanton"
  },
  {
    "AreaCode":"01964",
    "Town":"Hornsea / Patrington"
  },
  {
    "AreaCode":"01967",
    "Town":"Strontian"
  },
  {
    "AreaCode":"01968",
    "Town":"Penicuik"
  },
  {
    "AreaCode":"01969",
    "Town":"Leyburn"
  },
  {
    "AreaCode":"01970",
    "Town":"Aberystwyth"
  },
  {
    "AreaCode":"01971",
    "Town":"Scourie"
  },
  {
    "AreaCode":"01972",
    "Town":"Glenborrodale"
  },
  {
    "AreaCode":"01974",
    "Town":"Llanon"
  },
  {
    "AreaCode":"01975",
    "Town":"Alford (Aberdeen) / Strathdon"
  },
  {
    "AreaCode":"01977",
    "Town":"Pontefract"
  },
  {
    "AreaCode":"01978",
    "Town":"Wrexham"
  },
  {
    "AreaCode":"01980",
    "Town":"Amesbury"
  },
  {
    "AreaCode":"01981",
    "Town":"Wormbridge"
  },
  {
    "AreaCode":"01982",
    "Town":"Builth Wells"
  },
  {
    "AreaCode":"01983",
    "Town":"Isle of Wight"
  },
  {
    "AreaCode":"01984",
    "Town":"Watchet"
  },
  {
    "AreaCode":"01985",
    "Town":"Warminster"
  },
  {
    "AreaCode":"01986",
    "Town":"Bungay"
  },
  {
    "AreaCode":"01987",
    "Town":"Ebbsfleet"
  },
  {
    "AreaCode":"01988",
    "Town":"Wigtown"
  },
  {
    "AreaCode":"01989",
    "Town":"Ross-on-Wye"
  },
  {
    "AreaCode":"01992",
    "Town":"Lea Valley"
  },
  {
    "AreaCode":"01993",
    "Town":"Witney"
  },
  {
    "AreaCode":"01994",
    "Town":"St Clears"
  },
  {
    "AreaCode":"01995",
    "Town":"Garstang"
  },
  {
    "AreaCode":"01997",
    "Town":"Strathpeffer"
  },
  {
    "AreaCode":"020",
    "Town":"London"
  },
  {
    "AreaCode":"023",
    "Town":"Southampton / Portsmouth"
  },
  {
    "AreaCode":"024",
    "Town":"Coventry"
  },
  {
    "AreaCode":"028",
    "Town":"Northern Ireland"
  },
  {
    "AreaCode":"029",
    "Town":"Cardiff"
  }
]